NORAD_CAT_ID,OBJECT_NAME,OBJECT_TYPE,EPOCH,MEAN_MOTION,ECCENTRICITY,INCLINATION,RA_OF_ASC_NODE,ARG_OF_PERICENTER,MEAN_ANOMALY,BSTAR,MEAN_MOTION_DOT,MEAN_MOTION_DDOT,TLE_LINE0,TLE_LINE1,TLE_LINE2,SEMIMAJOR_AXIS,PERIOD,APOGEE,PERIGEE,DECAYED
53867.0,STARLINK-4793,PAYLOAD,2023-11-29 12:36:47,15.08816339,0.0001622,53.219,45.4228,81.2312,278.8863,-1.784e-05,-5.72e-06,0.0,0 STARLINK-4793,1 53867U 22114BB  23333.52554716 -.00000572  00000-0 -17840-4 0  9998,2 53867  53.2190  45.4228 0001622  81.2312 278.8863 15.08816339 67238,6917.953,95.439,540.94,538.696,0.0
53867.0,STARLINK-4793,PAYLOAD,2023-11-29 23:44:28,15.08844752,0.0001416,53.2186,43.3433,88.2992,271.8162,-0.00011121,-2.058e-05,0.0,0 STARLINK-4793,1 53867U 22114BB  23333.98921331 -.00002058  00000-0 -11121-3 0  9995,2 53867  53.2186  43.3433 0001416  88.2992 271.8162 15.08844752 67303,6917.866,95.437,540.71,538.751,0.0
53867.0,STARLINK-4793,PAYLOAD,2023-12-01 10:42:56,15.08848241,0.000178,53.2183,36.7967,137.9531,222.1598,-0.00022767,-3.911e-05,0.0,0 STARLINK-4793,1 53867U 22114BB  23335.44649209 -.00003911  00000-0 -22767-3 0  9996,2 53867  53.2183  36.7967 0001780 137.9531 222.1598 15.08848241 67526,6917.855,95.437,540.952,538.489,0.0
53867.0,STARLINK-4793,PAYLOAD,2023-12-01 23:26:01,15.08851855,0.0001341,53.2189,34.4211,118.0153,242.0974,0.00020916,3.043e-05,0.0,0 STARLINK-4793,1 53867U 22114BB  23335.97640712  .00003043  00000-0  20916-3 0  9992,2 53867  53.2189  34.4211 0001341 118.0153 242.0974 15.08851855 67605,6917.844,95.437,540.637,538.781,0.0
53867.0,STARLINK-4793,PAYLOAD,2023-12-02 10:33:42,15.08895658,0.0001573,53.2186,32.3447,97.6212,262.4959,0.0015875,0.00025106,0.0,0 STARLINK-4793,1 53867U 22114BB  23336.44007995  .00025106  00000-0  15875-2 0  9996,2 53867  53.2186  32.3447 0001573  97.6212 262.4959 15.08895658 67670,6917.71,95.434,540.663,538.487,0.0
53867.0,STARLINK-4793,PAYLOAD,2023-12-02 23:16:47,15.08861335,0.0001594,53.2183,29.9646,98.4855,261.6317,-3.9454e-05,-9.16e-06,0.0,0 STARLINK-4793,1 53867U 22114BB  23336.96999830 -.00000916  00000-0 -39454-4 0  9996,2 53867  53.2183  29.9646 0001594  98.4855 261.6317 15.08861335 67758,6917.815,95.436,540.783,538.577,0.0
53867.0,STARLINK-4793,PAYLOAD,2023-12-03 08:49:07,15.08817607,0.0001568,53.2189,28.1813,74.9961,285.1205,-0.00078944,-0.00012822,0.0,0 STARLINK-4793,1 53867U 22114BB  23337.36744889 -.00012822  00000-0 -78944-3 0  9998,2 53867  53.2189  28.1813 0001568  74.9961 285.1205 15.08817607 67816,6917.949,95.439,540.899,538.729,0.0
53867.0,STARLINK-4793,PAYLOAD,2023-12-03 13:35:17,15.08803716,0.0001732,53.2172,27.2851,47.638,312.4758,0.00094166,0.00014715,0.0,0 STARLINK-4793,1 53867U 22114BB  23337.56617738  .00014715  00000-0  94166-3 0  9997,2 53867  53.2172  27.2851 0001732  47.6380 312.4758 15.08803716 68381,6917.991,95.44,541.054,538.658,0.0
53867.0,STARLINK-4793,PAYLOAD,2023-12-04 03:53:46,15.0883832,0.0001645,53.2174,24.6087,52.5578,307.5564,0.0014308,0.00022555,0.0,0 STARLINK-4793,1 53867U 22114BB  23338.16234246  .00022555  00000-0  14308-2 0  9993,2 53867  53.2174  24.6087 0001645  52.5578 307.5564 15.08838320 67931,6917.886,95.438,540.889,538.613,0.0
53867.0,STARLINK-4793,PAYLOAD,2023-12-04 10:15:18,15.08850835,0.0001557,53.2178,23.4195,67.9253,292.1905,0.0014601,0.00023033,0.0,0 STARLINK-4793,1 53867U 22114BB  23338.42730062  .00023033  00000-0  14601-2 0  9997,2 53867  53.2178  23.4195 0001557  67.9253 292.1905 15.08850835 68512,6917.847,95.437,540.789,538.635,0.0
53867.0,STARLINK-4793,PAYLOAD,2023-12-04 22:58:23,15.08853303,0.0001583,53.2183,21.0408,100.9662,259.1508,0.00095631,0.0001497,0.0,0 STARLINK-4793,1 53867U 22114BB  23338.95721885  .00014970  00000-0  95631-3 0  9991,2 53867  53.2183  21.0408 0001583 100.9662 259.1508 15.08853303 68054,6917.84,95.437,540.8,538.61,0.0
53867.0,STARLINK-4793,PAYLOAD,2023-12-05 08:30:42,15.08844141,0.0001627,53.2181,19.2578,86.1321,273.9857,0.00059028,9.12e-05,0.0,0 STARLINK-4793,1 53867U 22114BB  23339.35466078  .00009120  00000-0  59028-3 0  9997,2 53867  53.2181  19.2578 0001627  86.1321 273.9857 15.08844141 68113,6917.868,95.437,540.858,538.607,0.0
53867.0,STARLINK-4793,PAYLOAD,2023-12-05 22:49:10,15.08842858,0.0001527,53.2169,16.579,76.3881,283.7281,0.00032854,4.945e-05,0.0,0 STARLINK-4793,1 53867U 22114BB  23339.95082131  .00004945  00000-0  32854-3 0  9995,2 53867  53.2169  16.5790 0001527  76.3881 283.7281 15.08842858 68209,6917.872,95.437,540.793,538.68,0.0
53867.0,STARLINK-4793,PAYLOAD,2023-12-06 09:56:52,15.08841109,0.0001641,53.2182,14.5014,79.644,280.4737,0.00012851,1.758e-05,0.0,0 STARLINK-4793,1 53867U 22114BB  23340.41450228  .00001758  00000-0  12851-3 0  9998,2 53867  53.2182  14.5014 0001641  79.6440 280.4737 15.08841109 68810,6917.877,95.437,540.877,538.607,0.0
53867.0,STARLINK-4793,PAYLOAD,2023-12-07 08:12:17,15.08834707,0.0001683,53.2179,10.3387,71.6535,288.464,2.1331e-05,5.1e-07,0.0,0 STARLINK-4793,1 53867U 22114BB  23341.34186858  .00000051  00000-0  21331-4 0  9995,2 53867  53.2179  10.3387 0001683  71.6535 288.4640 15.08834707 68419,6917.897,95.438,540.926,538.597,0.0
53867.0,STARLINK-4793,PAYLOAD,2023-12-08 08:03:04,15.0884073,0.0001733,53.2182,5.8774,67.826,292.2916,0.00011146,1.486e-05,0.0,0 STARLINK-4793,1 53867U 22114BB  23342.33546849  .00001486  00000-0  11146-3 0  9990,2 53867  53.2182   5.8774 0001733  67.8260 292.2916 15.08840730 69109,6917.878,95.438,540.942,538.544,0.0
53867.0,STARLINK-4793,PAYLOAD,2023-12-09 07:53:51,15.08842685,0.0001577,53.2188,1.4161,90.7674,269.3499,0.00012178,1.651e-05,0.0,0 STARLINK-4793,1 53867U 22114BB  23343.32906593  .00001651  00000-0  12178-3 0  9996,2 53867  53.2188   1.4161 0001577  90.7674 269.3499 15.08842685 69255,6917.872,95.437,540.828,538.646,0.0
53867.0,STARLINK-4793,PAYLOAD,2023-12-10 10:55:25,15.08836273,0.0001678,53.2184,356.3614,84.0432,276.0751,2.4328e-05,9.9e-07,0.0,0 STARLINK-4793,1 53867U 22114BB  23344.45515419  .00000099  00000-0  24328-4 0  9990,2 53867  53.2184 356.3614 0001678  84.0432 276.0751 15.08836273 68886,6917.892,95.438,540.918,538.596,0.0
53867.0,STARLINK-4793,PAYLOAD,2023-12-11 07:35:25,15.08840082,0.0001664,53.2189,352.4963,102.6792,257.4387,6.9054e-05,8.11e-06,0.0,0 STARLINK-4793,1 53867U 22114BB  23345.31626977  .00000811  00000-0  69054-4 0  9995,2 53867  53.2189 352.4963 0001664 102.6792 257.4387 15.08840082 69552,6917.88,95.438,540.896,538.594,0.0
53867.0,STARLINK-4793,PAYLOAD,2023-12-12 04:15:26,15.08836708,0.0001533,53.2184,348.6277,99.5829,260.5336,4.7003e-05,4.6e-06,0.0,0 STARLINK-4793,1 53867U 22114BB  23346.17739463  .00000460  00000-0  47003-4 0  9995,2 53867  53.2184 348.6277 0001533  99.5829 260.5336 15.08836708 69146,6917.89,95.438,540.816,538.695,0.0
53867.0,STARLINK-4793,PAYLOAD,2023-12-12 05:50:50,15.08837471,0.0001547,53.2188,348.33,100.6358,259.4809,5.2416e-05,5.46e-06,0.0,0 STARLINK-4793,1 53867U 22114BB  23346.24363471  .00000546  00000-0  52416-4 0  9994,2 53867  53.2188 348.3300 0001547 100.6358 259.4809 15.08837471 69690,6917.888,95.438,540.823,538.683,0.0
53867.0,STARLINK-4793,PAYLOAD,2023-12-13 07:16:59,15.08844167,0.0001459,53.2184,343.5727,89.8505,270.2654,8.8548e-05,1.122e-05,0.0,0 STARLINK-4793,1 53867U 22114BB  23347.30347052  .00001122  00000-0  88548-4 0  9995,2 53867  53.2184 343.5727 0001459  89.8505 270.2654 15.08844167 69318,6917.868,95.437,540.742,538.723,0.0
53867.0,STARLINK-4793,PAYLOAD,2023-12-14 03:57:01,15.0883826,0.0001562,53.218,339.7076,61.2424,298.8725,6.4501e-05,7.39e-06,0.0,0 STARLINK-4793,1 53867U 22114BB  23348.16459702  .00000739  00000-0  64501-4 0  9992,2 53867  53.2180 339.7076 0001562  61.2424 298.8725 15.08838260 69443,6917.886,95.438,540.831,538.67,0.0
53867.0,STARLINK-4793,PAYLOAD,2023-12-14 07:07:47,15.08840716,0.0001536,53.2185,339.1135,72.7343,287.3817,8.4847e-05,1.063e-05,0.0,0 STARLINK-4793,1 53867U 22114BB  23348.29707504  .00001063  00000-0  84847-4 0  9998,2 53867  53.2185 339.1135 0001536  72.7343 287.3817 15.08840716 70004,6917.878,95.438,540.806,538.681,0.0
53867.0,STARLINK-4793,PAYLOAD,2023-12-15 06:58:33,15.08849606,0.0002043,53.2197,334.6521,62.4659,297.654,0.0001226,1.664e-05,0.0,0 STARLINK-4793,1 53867U 22114BB  23349.29066893  .00001664  00000-0  12260-3 0  9994,2 53867  53.2197 334.6521 0002043  62.4659 297.6540 15.08849606 69615,6917.851,95.437,541.129,538.303,0.0
53867.0,STARLINK-4793,PAYLOAD,2023-12-16 03:38:35,15.08839525,0.0001407,53.2183,330.788,81.9637,278.1515,4.4064e-05,4.13e-06,0.0,0 STARLINK-4793,1 53867U 22114BB  23350.15179539  .00000413  00000-0  44064-4 0  9992,2 53867  53.2183 330.7880 0001407  81.9637 278.1515 15.08839525 69749,6917.882,95.438,540.72,538.773,0.0
53867.0,STARLINK-4793,PAYLOAD,2023-12-16 05:13:58,15.08841658,0.0001427,53.2183,330.4926,97.3465,262.7689,5.913e-05,6.53e-06,0.0,0 STARLINK-4793,1 53867U 22114BB  23350.21803368  .00000653  00000-0  59130-4 0  9999,2 53867  53.2183 330.4926 0001427  97.3465 262.7689 15.08841658 70292,6917.875,95.437,540.728,538.753,0.0
53867.0,STARLINK-4793,PAYLOAD,2023-12-17 05:04:44,15.08847342,0.0001464,53.2186,326.0257,102.0779,258.0377,5.5103e-06,-2e-06,0.0,0 STARLINK-4793,1 53867U 22114BB  23351.21163119 -.00000200  00000-0  55103-5 0  9999,2 53867  53.2186 326.0257 0001464 102.0779 258.0377 15.08847342 69900,6917.858,95.437,540.736,538.71,0.0
53867.0,STARLINK-4793,PAYLOAD,2023-12-18 04:55:31,15.08851798,0.0001592,53.2186,321.5662,108.7256,251.3909,0.00024811,3.664e-05,0.0,0 STARLINK-4793,1 53867U 22114BB  23352.20522829  .00003664  00000-0  24811-3 0  9992,2 53867  53.2186 321.5662 0001592 108.7256 251.3909 15.08851798 70599,6917.844,95.437,540.811,538.608,0.0
53867.0,STARLINK-4793,PAYLOAD,2023-12-19 03:10:55,15.08854634,0.0001741,53.2192,317.4075,116.8913,243.2257,0.00019178,2.767e-05,0.0,0 STARLINK-4793,1 53867U 22114BB  23353.13258141  .00002767  00000-0  19178-3 0  9991,2 53867  53.2192 317.4075 0001741 116.8913 243.2257 15.08854634 70198,6917.836,95.437,540.905,538.496,0.0
